[
    {
      "OBJECT_NAME": "IRIDIUM 131",
      "OBJECT_ID": "2017-083K",
      "EPOCH": "2026-03-26T12:20:03.234912",
      "MEAN_MOTION": 14.34217427,
      "ECCENTRICITY": 0.0002206,
      "INCLINATION": 86.4028,
      "RA_OF_ASC_NODE": 356.7278,
      "ARG_OF_PERICENTER": 82.1486,
      "MEAN_ANOMALY": 277.9961,
      "EPHEMERIS_TYPE": 0,
      "CLASSIFICATION_TYPE": "U",
      "NORAD_CAT_ID": 43079,
      "ELEMENT_SET_NO": 999,
      "REV_AT_EPOCH": 43225,
      "BSTAR": 0.000033475837,
      "MEAN_MOTION_DOT": 0.00000114,
      "MEAN_MOTION_DDOT": 0
    },
    {
      "OBJECT_NAME": "IRIDIUM 144",
      "OBJECT_ID": "2018-030A",
      "EPOCH": "2026-03-26T14:59:31.213248",
      "MEAN_MOTION": 14.34218037,
      "ECCENTRICITY": 0.00022836,
      "INCLINATION": 86.3978,
      "RA_OF_ASC_NODE": 324.9411,
      "ARG_OF_PERICENTER": 90.1236,
      "MEAN_ANOMALY": 270.0222,
      "EPHEMERIS_TYPE": 0,
      "CLASSIFICATION_TYPE": "U",
      "NORAD_CAT_ID": 43249,
      "ELEMENT_SET_NO": 999,
      "REV_AT_EPOCH": 41830,
      "BSTAR": 0.000045725216,
      "MEAN_MOTION_DOT": 0.00000148,
      "MEAN_MOTION_DDOT": 0
    },
    {
      "OBJECT_NAME": "IRIDIUM 149",
      "OBJECT_ID": "2018-030B",
      "EPOCH": "2026-03-26T10:07:15.534048",
      "MEAN_MOTION": 14.34219326,
      "ECCENTRICITY": 0.00020928,
      "INCLINATION": 86.398,
      "RA_OF_ASC_NODE": 324.9938,
      "ARG_OF_PERICENTER": 84.4434,
      "MEAN_ANOMALY": 275.7001,
      "EPHEMERIS_TYPE": 0,
      "CLASSIFICATION_TYPE": "U",
      "NORAD_CAT_ID": 43250,
      "ELEMENT_SET_NO": 999,
      "REV_AT_EPOCH": 41829,
      "BSTAR": 0.000080769597,
      "MEAN_MOTION_DOT": 0.00000246,
      "MEAN_MOTION_DDOT": 0
    },
    {
      "OBJECT_NAME": "IRIDIUM 157",
      "OBJECT_ID": "2018-030C",
      "EPOCH": "2026-03-26T13:55:35.421312",
      "MEAN_MOTION": 14.34217318,
      "ECCENTRICITY": 0.00020168,
      "INCLINATION": 86.3977,
      "RA_OF_ASC_NODE": 324.9784,
      "ARG_OF_PERICENTER": 86.1432,
      "MEAN_ANOMALY": 273.9994,
      "EPHEMERIS_TYPE": 0,
      "CLASSIFICATION_TYPE": "U",
      "NORAD_CAT_ID": 43251,
      "ELEMENT_SET_NO": 999,
      "REV_AT_EPOCH": 41829,
      "BSTAR": 0.000013675104,
      "MEAN_MOTION_DOT": 5.8e-7,
      "MEAN_MOTION_DDOT": 0
    },
    {
      "OBJECT_NAME": "IRIDIUM 140",
      "OBJECT_ID": "2018-030D",
      "EPOCH": "2026-03-26T16:03:27.457920",
      "MEAN_MOTION": 14.34217483,
      "ECCENTRICITY": 0.00021222,
      "INCLINATION": 86.3982,
      "RA_OF_ASC_NODE": 324.9545,
      "ARG_OF_PERICENTER": 87.9988,
      "MEAN_ANOMALY": 272.145,
      "EPHEMERIS_TYPE": 0,
      "CLASSIFICATION_TYPE": "U",
      "NORAD_CAT_ID": 43252,
      "ELEMENT_SET_NO": 999,
      "REV_AT_EPOCH": 41836,
      "BSTAR": 0.000031269358,
      "MEAN_MOTION_DOT": 0.00000107,
      "MEAN_MOTION_DDOT": 0
    },
    {
      "OBJECT_NAME": "IRIDIUM 145",
      "OBJECT_ID": "2018-030E",
      "EPOCH": "2026-03-26T15:45:11.498976",
      "MEAN_MOTION": 14.34216661,
      "ECCENTRICITY": 0.00022503,
      "INCLINATION": 86.3979,
      "RA_OF_ASC_NODE": 324.932,
      "ARG_OF_PERICENTER": 92.7433,
      "MEAN_ANOMALY": 267.4021,
      "EPHEMERIS_TYPE": 0,
      "CLASSIFICATION_TYPE": "U",
      "NORAD_CAT_ID": 43253,
      "ELEMENT_SET_NO": 999,
      "REV_AT_EPOCH": 41829,
      "BSTAR": -0.000085752689,
      "MEAN_MOTION_DOT": -0.0000022,
      "MEAN_MOTION_DDOT": 0
    },
    {
      "OBJECT_NAME": "IRIDIUM 146",
      "OBJECT_ID": "2018-030F",
      "EPOCH": "2026-03-26T18:38:43.508544",
      "MEAN_MOTION": 14.34216885,
      "ECCENTRICITY": 0.00022493,
      "INCLINATION": 86.3981,
      "RA_OF_ASC_NODE": 324.8944,
      "ARG_OF_PERICENTER": 88.7169,
      "MEAN_ANOMALY": 271.4285,
      "EPHEMERIS_TYPE": 0,
      "CLASSIFICATION_TYPE": "U",
      "NORAD_CAT_ID": 43254,
      "ELEMENT_SET_NO": 999,
      "REV_AT_EPOCH": 41832,
      "BSTAR": -7.52154e-7,
      "MEAN_MOTION_DOT": 1.8e-7,
      "MEAN_MOTION_DDOT": 0
    },
    {
      "OBJECT_NAME": "IRIDIUM 148",
      "OBJECT_ID": "2018-030G",
      "EPOCH": "2026-03-26T14:32:07.448928",
      "MEAN_MOTION": 14.34217319,
      "ECCENTRICITY": 0.000209,
      "INCLINATION": 86.3983,
      "RA_OF_ASC_NODE": 325.0074,
      "ARG_OF_PERICENTER": 85.9293,
      "MEAN_ANOMALY": 274.2142,
      "EPHEMERIS_TYPE": 0,
      "CLASSIFICATION_TYPE": "U",
      "NORAD_CAT_ID": 43255,
      "ELEMENT_SET_NO": 999,
      "REV_AT_EPOCH": 41833,
      "BSTAR": 0.00001289177,
      "MEAN_MOTION_DOT": 5.6e-7,
      "MEAN_MOTION_DDOT": 0
    },
    {
      "OBJECT_NAME": "IRIDIUM 142",
      "OBJECT_ID": "2018-030H",
      "EPOCH": "2026-03-26T13:46:27.568416",
      "MEAN_MOTION": 14.34216891,
      "ECCENTRICITY": 0.00023066,
      "INCLINATION": 86.3977,
      "RA_OF_ASC_NODE": 324.9132,
      "ARG_OF_PERICENTER": 91.8583,
      "MEAN_ANOMALY": 268.2877,
      "EPHEMERIS_TYPE": 0,
      "CLASSIFICATION_TYPE": "U",
      "NORAD_CAT_ID": 43256,
      "ELEMENT_SET_NO": 999,
      "REV_AT_EPOCH": 41829,
      "BSTAR": 0.000008369266,
      "MEAN_MOTION_DOT": 4.3e-7,
      "MEAN_MOTION_DDOT": 0
    },
    {
      "OBJECT_NAME": "IRIDIUM 150",
      "OBJECT_ID": "2018-030J",
      "EPOCH": "2026-03-26T14:41:15.415008",
      "MEAN_MOTION": 14.34217089,
      "ECCENTRICITY": 0.00021139,
      "INCLINATION": 86.3982,
      "RA_OF_ASC_NODE": 325.0107,
      "ARG_OF_PERICENTER": 87.8257,
      "MEAN_ANOMALY": 272.3181,
      "EPHEMERIS_TYPE": 0,
      "CLASSIFICATION_TYPE": "U",
      "NORAD_CAT_ID": 43257,
      "ELEMENT_SET_NO": 999,
      "REV_AT_EPOCH": 41832,
      "BSTAR": 0.000030979566,
      "MEAN_MOTION_DOT": 0.00000107,
      "MEAN_MOTION_DDOT": 0
    },
    {
      "OBJECT_NAME": "IRIDIUM 143",
      "OBJECT_ID": "2018-030K",
      "EPOCH": "2026-03-26T15:54:19.472832",
      "MEAN_MOTION": 14.34216689,
      "ECCENTRICITY": 0.0002102,
      "INCLINATION": 86.3988,
      "RA_OF_ASC_NODE": 325.0786,
      "ARG_OF_PERICENTER": 90.9953,
      "MEAN_ANOMALY": 269.1484,
      "EPHEMERIS_TYPE": 0,
      "CLASSIFICATION_TYPE": "U",
      "NORAD_CAT_ID": 43258,
      "ELEMENT_SET_NO": 999,
      "REV_AT_EPOCH": 41826,
      "BSTAR": -0.00002236118,
      "MEAN_MOTION_DOT": -4.3e-7,
      "MEAN_MOTION_DDOT": 0
    },
    {
      "OBJECT_NAME": "IRIDIUM 161",
      "OBJECT_ID": "2018-047C",
      "EPOCH": "2026-03-26T12:38:21.833376",
      "MEAN_MOTION": 14.43284618,
      "ECCENTRICITY": 0.00022714,
      "INCLINATION": 86.4468,
      "RA_OF_ASC_NODE": 123.0453,
      "ARG_OF_PERICENTER": 84.7948,
      "MEAN_ANOMALY": 275.3512,
      "EPHEMERIS_TYPE": 0,
      "CLASSIFICATION_TYPE": "U",
      "NORAD_CAT_ID": 43478,
      "ELEMENT_SET_NO": 999,
      "REV_AT_EPOCH": 41321,
      "BSTAR": 0.000088562379,
      "MEAN_MOTION_DOT": 0.00000318,
      "MEAN_MOTION_DDOT": 0
    },
    {
      "OBJECT_NAME": "IRIDIUM 152",
      "OBJECT_ID": "2018-047D",
      "EPOCH": "2026-03-26T08:33:10.307520",
      "MEAN_MOTION": 14.34216906,
      "ECCENTRICITY": 0.00021551,
      "INCLINATION": 86.3943,
      "RA_OF_ASC_NODE": 122.9769,
      "ARG_OF_PERICENTER": 90.5911,
      "MEAN_ANOMALY": 269.5531,
      "EPHEMERIS_TYPE": 0,
      "CLASSIFICATION_TYPE": "U",
      "NORAD_CAT_ID": 43479,
      "ELEMENT_SET_NO": 999,
      "REV_AT_EPOCH": 41061,
      "BSTAR": 0.000014860828,
      "MEAN_MOTION_DOT": 6.1e-7,
      "MEAN_MOTION_DDOT": 0
    }
  ]