IRIDIUM 131             
1 43079U 17083K   26085.51392633  .00000114  00000+0  33476-4 0  9997
2 43079  86.4028 356.7278 0002206  82.1486 277.9961 14.34217427432252
IRIDIUM 144             
1 43249U 18030A   26085.62466682  .00000148  00000+0  45725-4 0  9994
2 43249  86.3978 324.9411 0002283  90.1236 270.0222 14.34218037418309
IRIDIUM 149             
1 43250U 18030B   26085.42170757  .00000246  00000+0  80770-4 0  9997
2 43250  86.3980 324.9938 0002092  84.4434 275.7001 14.34219326418299
IRIDIUM 157             
1 43251U 18030C   26085.58027108  .00000058  00000+0  13675-4 0  9997
2 43251  86.3977 324.9784 0002016  86.1432 273.9994 14.34217318418298
IRIDIUM 140             
1 43252U 18030D   26085.66906780  .00000107  00000+0  31269-4 0  9993
2 43252  86.3982 324.9545 0002122  87.9988 272.1450 14.34217483418362
IRIDIUM 145             
1 43253U 18030E   26085.65638309 -.00000220  00000+0 -85753-4 0  9997
2 43253  86.3979 324.9320 0002250  92.7433 267.4021 14.34216661418291
IRIDIUM 146             
1 43254U 18030F   26085.77689246  .00000018  00000+0 -75215-6 0  9995
2 43254  86.3981 324.8944 0002249  88.7169 271.4285 14.34216885418324
IRIDIUM 148             
1 43255U 18030G   26085.60564177  .00000056  00000+0  12892-4 0  9994
2 43255  86.3983 325.0074 0002090  85.9293 274.2142 14.34217319418332
IRIDIUM 142             
1 43256U 18030H   26085.57393019  .00000043  00000+0  83693-5 0  9990
2 43256  86.3977 324.9132 0002306  91.8583 268.2877 14.34216891418294
IRIDIUM 150             
1 43257U 18030J   26085.61198397  .00000107  00000+0  30980-4 0  9999
2 43257  86.3982 325.0107 0002113  87.8257 272.3181 14.34217089418322
IRIDIUM 143             
1 43258U 18030K   26085.66272538 -.00000043  00000+0 -22361-4 0  9990
2 43258  86.3988 325.0786 0002102  90.9953 269.1484 14.34216689418266
IRIDIUM 161             
1 43478U 18047C   26085.52664159  .00000318  00000+0  88562-4 0  9999
2 43478  86.4468 123.0453 0002271  84.7948 275.3512 14.43284618413211
IRIDIUM 152             
1 43479U 18047D   26085.35636930  .00000061  00000+0  14861-4 0  9993
2 43479  86.3943 122.9769 0002155  90.5911 269.5531 14.34216906410615
